{
  "norad_id": 66072,
  "name": "STARLINK-35299",
  "history": [
    {
      "epoch": "2026-03-28T14:13:15.252096Z",
      "apogee_km": 475.92005832299037,
      "perigee_km": 474.41233162009667,
      "latitude_deg": -2.9037732359534305e-06,
      "longitude_deg": 118.28147988188175,
      "height_km": 475.98380843237607,
      "semi_major_axis_km": 6853.303194971543,
      "eccentricity": 0.00011,
      "inclination_deg": 53.1603,
      "raan_deg": 157.6058,
      "arg_perigee_deg": 83.8516,
      "mean_anomaly_deg": 276.261,
      "mean_motion_rev_day": 15.30216369
    },
    {
      "epoch": "2026-03-29T04:19:44.249664Z",
      "apogee_km": 476.60547286774454,
      "perigee_km": 473.70104845527567,
      "latitude_deg": 3.826413595258154e-05,
      "longitude_deg": -96.65060993786855,
      "height_km": 476.0613760892727,
      "semi_major_axis_km": 6853.29026066151,
      "eccentricity": 0.0002119,
      "inclination_deg": 53.1585,
      "raan_deg": 154.8739,
      "arg_perigee_deg": 90.4503,
      "mean_anomaly_deg": 269.6741,
      "mean_motion_rev_day": 15.30220701
    }
  ]
}